[{"OBJECT_NAME":"DONGPO 10","OBJECT_ID":"2022-167H","EPOCH":"2026-03-09T22:44:56.137344","MEAN_MOTION":15.322785,"ECCENTRICITY":0.00061655,"INCLINATION":97.685,"RA_OF_ASC_NODE":235.0962,"ARG_OF_PERICENTER":106.9526,"MEAN_ANOMALY":253.2392,"EPHEMERIS_TYPE":0,"CLASSIFICATION_TYPE":"U","NORAD_CAT_ID":54689,"ELEMENT_SET_NO":999,"REV_AT_EPOCH":18015,"BSTAR":0.00049390523,"MEAN_MOTION_DOT":0.00015333,"MEAN_MOTION_DDOT":0},{"OBJECT_NAME":"STARLINK-31490","OBJECT_ID":"2024-046X","EPOCH":"2026-03-09T22:29:20.325984","MEAN_MOTION":15.30192098,"ECCENTRICITY":8.027e-5,"INCLINATION":53.158,"RA_OF_ASC_NODE":154.4532,"ARG_OF_PERICENTER":80.9222,"MEAN_ANOMALY":279.1869,"EPHEMERIS_TYPE":0,"CLASSIFICATION_TYPE":"U","NORAD_CAT_ID":59222,"ELEMENT_SET_NO":999,"REV_AT_EPOCH":11307,"BSTAR":9.8074396e-5,"MEAN_MOTION_DOT":2.546e-5,"MEAN_MOTION_DDOT":0}]
